[{"OBJECT_NAME":"GAOFEN-5 01A","OBJECT_ID":"2022-165A","EPOCH":"2026-03-09T23:48:04.634784","MEAN_MOTION":14.5780943,"ECCENTRICITY":6.342e-5,"INCLINATION":98.2281,"RA_OF_ASC_NODE":7.3832,"ARG_OF_PERICENTER":37.2701,"MEAN_ANOMALY":322.8541,"EPHEMERIS_TYPE":0,"CLASSIFICATION_TYPE":"U","NORAD_CAT_ID":54640,"ELEMENT_SET_NO":999,"REV_AT_EPOCH":17296,"BSTAR":0.00017296307,"MEAN_MOTION_DOT":7.46e-6,"MEAN_MOTION_DDOT":0},{"OBJECT_NAME":"COSMOS 2251 DEB","OBJECT_ID":"1993-036ADX","EPOCH":"2026-03-09T10:05:14.807328","MEAN_MOTION":14.14424635,"ECCENTRICITY":0.02222109,"INCLINATION":73.7464,"RA_OF_ASC_NODE":75.6178,"ARG_OF_PERICENTER":269.0778,"MEAN_ANOMALY":88.4898,"EPHEMERIS_TYPE":0,"CLASSIFICATION_TYPE":"U","NORAD_CAT_ID":34944,"ELEMENT_SET_NO":999,"REV_AT_EPOCH":65308,"BSTAR":0.00073275493,"MEAN_MOTION_DOT":1.75e-5,"MEAN_MOTION_DDOT":0}]
